[{"OBJECT_NAME":"TIANQI-28","OBJECT_ID":"2024-102D","EPOCH":"2026-03-09T22:51:16.709472","MEAN_MOTION":13.99129757,"ECCENTRICITY":0.00101507,"INCLINATION":44.9805,"RA_OF_ASC_NODE":343.2234,"ARG_OF_PERICENTER":142.3431,"MEAN_ANOMALY":217.8114,"EPHEMERIS_TYPE":0,"CLASSIFICATION_TYPE":"U","NORAD_CAT_ID":59912,"ELEMENT_SET_NO":999,"REV_AT_EPOCH":9100,"BSTAR":0.00025291136,"MEAN_MOTION_DOT":2.4e-6,"MEAN_MOTION_DDOT":0},{"OBJECT_NAME":"THORAD AGENA D DEB","OBJECT_ID":"1970-025NH","EPOCH":"2026-03-09T14:39:29.820384","MEAN_MOTION":14.08969143,"ECCENTRICITY":0.007514,"INCLINATION":100.1715,"RA_OF_ASC_NODE":102.2749,"ARG_OF_PERICENTER":359.824,"MEAN_ANOMALY":0.2887,"EPHEMERIS_TYPE":0,"CLASSIFICATION_TYPE":"U","NORAD_CAT_ID":6766,"ELEMENT_SET_NO":999,"REV_AT_EPOCH":82147,"BSTAR":0.0011079,"MEAN_MOTION_DOT":1.914e-5,"MEAN_MOTION_DDOT":0}]
